{
    "links": {
        "self": "http://www.neowsapp.com/rest/v1/neo/3435545?api_key=iIulBulltgU6a56xZRHN4H3l9WmuAYTsLGpBGhQ2"
    },
    "id": "3435545",
    "neo_reference_id": "3435545",
    "name": "(2008 VD)",
    "designation": "2008 VD",
    "nasa_jpl_url": "http://ssd.jpl.nasa.gov/sbdb.cgi?sstr=3435545",
    "absolute_magnitude_h": 24.2,
    "estimated_diameter": {
        "kilometers": {
            "estimated_diameter_min": 0.0384197891,
            "estimated_diameter_max": 0.0859092601
        },
        "meters": {
            "estimated_diameter_min": 38.4197891064,
            "estimated_diameter_max": 85.9092601232
        },
        "miles": {
            "estimated_diameter_min": 0.0238729428,
            "estimated_diameter_max": 0.0533815229
        },
        "feet": {
            "estimated_diameter_min": 126.0491808919,
            "estimated_diameter_max": 281.8545369825
        }
    },
    "is_potentially_hazardous_asteroid": false,
    "close_approach_data": [
        {
            "close_approach_date": "2008-05-05",
            "close_approach_date_full": "2008-May-05 06:59",
            "epoch_date_close_approach": 1209970740000,
            "relative_velocity": {
                "kilometers_per_second": "15.7919356068",
                "kilometers_per_hour": "56850.9681846236",
                "miles_per_hour": "35324.9807589402"
            },
            "miss_distance": {
                "astronomical": "0.3177542149",
                "lunar": "123.6063895961",
                "kilometers": "47535353.732562263",
                "miles": "29537099.1559267094"
            },
            "orbiting_body": "Earth"
        },
        {
            "close_approach_date": "2008-10-29",
            "close_approach_date_full": "2008-Oct-29 16:29",
            "epoch_date_close_approach": 1225297740000,
            "relative_velocity": {
                "kilometers_per_second": "17.9380278768",
                "kilometers_per_hour": "64576.9003566272",
                "miles_per_hour": "40125.5745577054"
            },
            "miss_distance": {
                "astronomical": "0.0501953983",
                "lunar": "19.5260099387",
                "kilometers": "7509124.669481621",
                "miles": "4665953.7064675298"
            },
            "orbiting_body": "Earth"
        }
    ],
    "orbital_data": {
        "orbit_id": "7",
        "orbit_determination_date": "2017-04-06 09:02:18",
        "first_observation_date": "2008-11-01",
        "last_observation_date": "2008-11-04",
        "data_arc_in_days": 3,
        "observations_used": 23,
        "orbit_uncertainty": "9",
        "minimum_orbit_intersection": ".0463285",
        "jupiter_tisserand_invariant": "5.009",
        "epoch_osculation": "2454773.5",
        "eccentricity": ".2415377188269848",
        "semi_major_axis": "1.238124556549224",
        "inclination": "31.56850137739859",
        "ascending_node_longitude": "37.46155517299039",
        "orbital_period": "503.2049827692204",
        "perihelion_distance": ".9390707755366524",
        "perihelion_argument": "299.3145698287303",
        "aphelion_distance": "1.537178337561796",
        "perihelion_time": "2454717.442886977105",
        "mean_anomaly": "40.10405576110401",
        "mean_motion": ".715414219507248",
        "equinox": "J2000",
        "orbit_class": {
            "orbit_class_type": "APO",
            "orbit_class_description": "Near-Earth asteroid orbits which cross the Earth’s orbit similar to that of 1862 Apollo",
            "orbit_class_range": "a (semi-major axis) > 1.0 AU; q (perihelion) < 1.017 AU"
        }
    },
    "is_sentry_object": false
}